NORAD_CAT_ID,OBJECT_NAME,OBJECT_TYPE,EPOCH,MEAN_MOTION,ECCENTRICITY,INCLINATION,RA_OF_ASC_NODE,ARG_OF_PERICENTER,MEAN_ANOMALY,BSTAR,MEAN_MOTION_DOT,MEAN_MOTION_DDOT,TLE_LINE0,TLE_LINE1,TLE_LINE2,SEMIMAJOR_AXIS,PERIOD,APOGEE,PERIGEE,DECAYED
51104.0,STARLINK-3366,PAYLOAD,2024-03-20 18:28:30,15.08804438,0.0001548,53.2179,276.4707,89.9919,270.125,0.00037601,5.696e-05,0.0,0 STARLINK-3366,1 51104U 22005A   24080.76979634  .00005696  00000-0  37601-3 0  9991,2 51104  53.2179 276.4707 0001548  89.9919 270.1250 15.08804438121468,6917.989,95.44,540.925,538.783,0.0
51104.0,STARLINK-3366,PAYLOAD,2024-03-21 05:36:12,15.08836471,0.0001139,53.217,274.3897,72.8273,287.2843,1.2254e-05,-9.3e-07,0.0,0 STARLINK-3366,1 51104U 22005A   24081.23347273 -.00000093  00000-0  12254-4 0  9997,2 51104  53.2170 274.3897 0001139  72.8273 287.2843 15.08836471121533,6917.891,95.438,540.544,538.968,0.0
51104.0,STARLINK-3366,PAYLOAD,2024-03-21 19:54:42,15.08818184,0.0001441,53.2176,271.7149,89.1997,270.916,-0.00011006,-2.038e-05,0.0,0 STARLINK-3366,1 51104U 22005A   24081.82965466 -.00002038  00000-0 -11006-3 0  9997,2 51104  53.2176 271.7149 0001441  89.1997 270.9160 15.08818184121622,6917.947,95.439,540.809,538.815,0.0
51104.0,STARLINK-3366,PAYLOAD,2024-03-21 23:05:28,15.08820527,0.0001436,53.2177,271.1187,92.7056,267.4101,-8.4553e-05,-1.633e-05,0.0,0 STARLINK-3366,1 51104U 22005A   24081.96213382 -.00001633  00000-0 -84553-4 0  9993,2 51104  53.2177 271.1187 0001436  92.7056 267.4101 15.08820527120527,6917.94,95.439,540.798,538.811,0.0
51104.0,STARLINK-3366,PAYLOAD,2024-03-22 18:10:05,15.08834487,0.0001234,53.2174,267.5554,76.4543,283.6587,0.00011517,1.545e-05,0.0,0 STARLINK-3366,1 51104U 22005A   24082.75700484  .00001545  00000-0  11517-3 0  9994,2 51104  53.2174 267.5554 0001234  76.4543 283.6587 15.08834487121762,6917.897,95.438,540.616,538.909,0.0
51104.0,STARLINK-3366,PAYLOAD,2024-03-22 21:20:50,15.08847422,0.0001207,53.2174,266.9608,108.2692,251.8431,0.00021969,3.211e-05,0.0,0 STARLINK-3366,1 51104U 22005A   24082.88947263  .00003211  00000-0  21969-3 0  9990,2 51104  53.2174 266.9608 0001207 108.2692 251.8431 15.08847422120660,6917.858,95.437,540.558,538.888,0.0
51104.0,STARLINK-3366,PAYLOAD,2024-03-23 21:11:37,15.08850786,0.0001005,53.2166,262.4967,83.573,276.5377,0.00026567,3.944e-05,0.0,0 STARLINK-3366,1 51104U 22005A   24083.88306757  .00003944  00000-0  26567-3 0  9990,2 51104  53.2166 262.4967 0001005  83.5730 276.5377 15.08850786120811,6917.847,95.437,540.408,539.017,0.0
51104.0,STARLINK-3366,PAYLOAD,2024-03-24 11:30:05,15.08852441,0.0002547,53.2166,259.8255,77.5021,282.6256,0.00014333,1.994e-05,0.0,0 STARLINK-3366,1 51104U 22005A   24084.47923052  .00001994  00000-0  14333-3 0  9990,2 51104  53.2166 259.8255 0002547  77.5021 282.6256 15.08852441122028,6917.842,95.437,541.469,537.945,0.0
51104.0,STARLINK-3366,PAYLOAD,2024-03-24 17:51:39,15.08841936,7.99e-05,53.2153,258.636,98.7166,261.3917,-0.00016589,-2.927e-05,0.0,0 STARLINK-3366,1 51104U 22005A   24084.74420187 -.00002927  00000-0 -16589-3 0  9995,2 51104  53.2153 258.6360 0000799  98.7166 261.3917 15.08841936122069,6917.874,95.437,540.292,539.187,0.0
51104.0,STARLINK-3366,PAYLOAD,2024-03-25 04:59:19,15.08854351,0.0001422,53.2184,256.5501,97.156,262.9594,-4.5996e-05,-1.02e-05,0.0,0 STARLINK-3366,1 51104U 22005A   24085.20786831 -.00001020  00000-0 -45996-4 0  9996,2 51104  53.2184 256.5501 0001422  97.1560 262.9594 15.08854351122133,6917.837,95.437,540.685,538.718,0.0
51104.0,STARLINK-3366,PAYLOAD,2024-03-25 17:42:25,15.08842232,0.000139,53.2162,254.172,96.4633,263.6517,-1.8391e-05,-5.81e-06,0.0,0 STARLINK-3366,1 51104U 22005A   24085.73778997 -.00000581  00000-0 -18391-4 0  9998,2 51104  53.2162 254.1720 0001390  96.4633 263.6517 15.08842232122210,6917.874,95.437,540.7,538.777,0.0
51104.0,STARLINK-3366,PAYLOAD,2024-03-26 14:22:27,15.08820735,0.0001069,53.2179,250.3071,94.2302,265.8812,0.00016617,2.356e-05,0.0,0 STARLINK-3366,1 51104U 22005A   24086.59892398  .00002356  00000-0  16617-3 0  9993,2 51104  53.2179 250.3071 0001069  94.2302 265.8812 15.08820735121223,6917.939,95.439,540.544,539.065,0.0
51104.0,STARLINK-3366,PAYLOAD,2024-03-26 17:33:13,15.0881789,0.0001023,53.2181,249.7115,98.4205,261.6903,0.00015356,2.156e-05,0.0,0 STARLINK-3366,1 51104U 22005A   24086.73140724  .00002156  00000-0  15356-3 0  9995,2 51104  53.2181 249.7115 0001023  98.4205 261.6903 15.08817890122364,6917.948,95.439,540.521,539.105,0.0
51104.0,STARLINK-3366,PAYLOAD,2024-03-27 11:02:27,15.08829468,0.0001033,53.2164,246.4415,95.3911,264.7199,6.8245e-05,7.98e-06,0.0,0 STARLINK-3366,1 51104U 22005A   24087.46004574  .00000798  00000-0  68245-4 0  9994,2 51104  53.2164 246.4415 0001033  95.3911 264.7199 15.08829468122470,6917.913,95.438,540.492,539.063,0.0
51104.0,STARLINK-3366,PAYLOAD,2024-03-27 14:13:13,15.08832796,9.61e-05,53.2163,245.8479,95.735,264.3752,0.00010207,1.337e-05,0.0,0 STARLINK-3366,1 51104U 22005A   24087.59252253  .00001337  00000-0  10207-3 0  9991,2 51104  53.2163 245.8479 0000961  95.7350 264.3752 15.08832796121379,6917.902,95.438,540.432,539.103,0.0
51104.0,STARLINK-3366,PAYLOAD,2024-03-27 17:23:59,15.08836228,9.18e-05,53.217,245.2555,91.7531,268.3567,0.00015005,2.101e-05,0.0,0 STARLINK-3366,1 51104U 22005A   24087.72499998  .00002101  00000-0  15005-3 0  9996,2 51104  53.2170 245.2555 0000918  91.7531 268.3567 15.08836228122514,6917.892,95.438,540.392,539.122,0.0
51104.0,STARLINK-3366,PAYLOAD,2024-03-28 10:53:14,15.08834821,0.0001131,53.2174,241.9856,100.0489,260.0631,0.00018885,2.719e-05,0.0,0 STARLINK-3366,1 51104U 22005A   24088.45364340  .00002719  00000-0  18885-3 0  9993,2 51104  53.2174 241.9856 0001131 100.0489 260.0631 15.08834821121505,6917.896,95.438,540.544,538.979,0.0
51104.0,STARLINK-3366,PAYLOAD,2024-03-28 17:14:47,15.08829853,0.0001104,53.2174,240.7957,98.3023,261.8094,0.00013156,1.806e-05,0.0,0 STARLINK-3366,1 51104U 22005A   24088.71860931  .00001806  00000-0  13156-3 0  9991,2 51104  53.2174 240.7957 0001104  98.3023 261.8094 15.08829853122666,6917.911,95.438,540.54,539.013,0.0
51104.0,STARLINK-3366,PAYLOAD,2024-03-29 09:08:38,15.08842676,0.0001141,53.2174,237.8207,89.2761,270.8362,5.7937e-05,6.34e-06,0.0,0 STARLINK-3366,1 51104U 22005A   24089.38100593  .00000634  00000-0  57937-4 0  9990,2 51104  53.2174 237.8207 0001141  89.2761 270.8362 15.08842676122767,6917.872,95.437,540.527,538.948,0.0
51104.0,STARLINK-3366,PAYLOAD,2024-03-30 13:45:36,15.08831327,0.0002063,53.2186,232.4685,92.5673,267.5555,2.6538e-05,1.34e-06,0.0,0 STARLINK-3366,1 51104U 22005A   24090.57333424  .00000134  00000-0  26538-4 0  9992,2 51104  53.2186 232.4685 0002063  92.5673 267.5555 15.08831327121828,6917.907,95.438,541.199,538.345,0.0
51104.0,STARLINK-3366,PAYLOAD,2024-03-31 13:36:22,15.08842356,0.000175,53.2166,228.0075,80.2673,279.8517,9.2717e-05,1.188e-05,0.0,0 STARLINK-3366,1 51104U 22005A   24091.56692786  .00001188  00000-0  92717-4 0  9993,2 51104  53.2166 228.0075 0001750  80.2673 279.8517 15.08842356123095,6917.873,95.437,540.949,538.528,0.0
51104.0,STARLINK-3366,PAYLOAD,2024-03-31 15:11:44,15.08885354,0.0001277,53.2153,227.7096,69.3641,290.7488,-0.00053725,-8.839e-05,0.0,0 STARLINK-3366,1 51104U 22005A   24091.63315400 -.00008839  00000-0 -53725-3 0  9993,2 51104  53.2153 227.7096 0001277  69.3641 290.7488 15.08885354121987,6917.742,95.435,540.49,538.723,0.0
51104.0,STARLINK-3366,PAYLOAD,2024-03-31 16:47:08,15.08843992,0.0001612,53.2172,227.4138,80.7006,279.4169,0.00013078,1.794e-05,0.0,0 STARLINK-3366,1 51104U 22005A   24091.69940585  .00001794  00000-0  13078-3 0  9995,2 51104  53.2172 227.4138 0001612  80.7006 279.4169 15.08843992121990,6917.868,95.437,540.848,538.618,0.0
51104.0,STARLINK-3366,PAYLOAD,2024-04-01 02:19:26,15.08848376,0.000142,53.2175,225.6286,82.0953,278.02,0.00024921,3.681e-05,0.0,0 STARLINK-3366,1 51104U 22005A   24092.09683748  .00003681  00000-0  24921-3 0  9991,2 51104  53.2175 225.6286 0001420  82.0953 278.0200 15.08848376123174,6917.855,95.437,540.702,538.737,0.0
51104.0,STARLINK-3366,PAYLOAD,2024-04-01 08:41:01,15.08826957,0.0001479,53.2166,224.4392,86.5411,273.575,5.4074e-05,5.72e-06,0.0,0 STARLINK-3366,1 51104U 22005A   24092.36181744  .00000572  00000-0  54074-4 0  9999,2 51104  53.2166 224.4392 0001479  86.5411 273.5750 15.08826957123217,6917.92,95.438,540.808,538.762,0.0
51104.0,STARLINK-3366,PAYLOAD,2024-04-01 15:02:33,15.08829165,0.0001325,53.2163,223.2495,89.7716,270.3428,7.3899e-05,8.88e-06,0.0,0 STARLINK-3366,1 51104U 22005A   24092.62677729  .00000888  00000-0  73899-4 0  9997,2 51104  53.2163 223.2495 0001325  89.7716 270.3428 15.08829165122139,6917.914,95.438,540.695,538.862,0.0
51104.0,STARLINK-3366,PAYLOAD,2024-04-02 02:10:17,15.0880692,0.0001505,53.2176,221.1698,81.382,278.7343,-0.00017665,-3.096e-05,0.0,0 STARLINK-3366,1 51104U 22005A   24093.09048605 -.00003096  00000-0 -17665-3 0  9998,2 51104  53.2176 221.1698 0001505  81.3820 278.7343 15.08806920123323,6917.982,95.44,540.888,538.805,0.0
51104.0,STARLINK-3366,PAYLOAD,2024-04-02 11:42:35,15.08825953,0.0001693,53.2158,219.3853,94.6061,265.5124,-1.2009e-06,-3.07e-06,0.0,0 STARLINK-3366,1 51104U 22005A   24093.48791240 -.00000307  00000-0 -12009-5 0  9992,2 51104  53.2158 219.3853 0001693  94.6061 265.5124 15.08825953123381,6917.923,95.438,540.96,538.617,0.0
51104.0,STARLINK-3366,PAYLOAD,2024-04-02 14:53:21,15.08831593,0.0001331,53.2163,218.7896,86.8831,273.2313,0.00010529,1.388e-05,0.0,0 STARLINK-3366,1 51104U 22005A   24093.62038971  .00001388  00000-0  10529-3 0  9994,2 51104  53.2163 218.7896 0001331  86.8831 273.2313 15.08831593122285,6917.906,95.438,540.692,538.85,0.0
51104.0,STARLINK-3366,PAYLOAD,2024-04-03 11:33:21,15.08854756,0.0001331,53.2158,214.9243,89.6737,270.4408,0.00060331,9.331e-05,0.0,0 STARLINK-3366,1 51104U 22005A   24094.48150093  .00009331  00000-0  60331-3 0  9991,2 51104  53.2158 214.9243 0001331  89.6737 270.4408 15.08854756123538,6917.835,95.437,540.621,538.78,0.0
